*******************************************************************************
JPL/HORIZONS                  86047 (1999 OY3)             2020-Dec-02 15:41:59
Rec #:   86047 (+COV) Soln.date: 2020-Nov-12_20:58:49    # obs: 112 (1999-2020)
 
IAU76/J2000 helio. ecliptic osc. elements (au, days, deg., period=Julian yrs):
 
  EPOCH=  2457096.5 ! 2015-Mar-15.00 (TDB)         Residual RMS= .15215
   EC= .169740588921197    QR= 36.26812668038214   TP= 2439073.1918764696
   OM= 301.8697653771097   W=  303.6792418278852   IN= 24.27547942825912
   A= 43.68288536863064    MA= 61.52783106197821   ADIST= 51.09764405687915
   PER= 288.71888          N= .003413792           ANGMOM= .112044046
   DAN= 38.77451           DDN= 46.83258           L= 248.03778
   B= -20.0060351          MOID= 35.3158989        TP= 1965-Nov-08.6918764696
 
Asteroid physical parameters (km, seconds, rotational period in hours):
   GM= n.a.                RAD= n.a.               ROTPER= 18.02
   H= 6.8                  G= .150                 B-V= n.a.
                           ALBEDO= n.a.            STYP= n.a.
 
ASTEROID comments: 
1: soln ref.= JPL#9, OCC=2
2: source=ORB
*******************************************************************************
 
 
*******************************************************************************
Ephemeris / WWW_USER Wed Dec  2 15:41:59 2020 Pasadena, USA      / Horizons
*******************************************************************************
Target body name: 86047 (1999 OY3)                {source: JPL#9}
Center body name: Solar System Barycenter (0)     {source: DE431}
Center-site name: BODY CENTER
*******************************************************************************
Start time      : A.D. 2000-Jan-01 00:00:00.0000 TDB
Stop  time      : A.D. 2000-Jan-01 00:00:00.5000 TDB
Step-size       : 0 steps
*******************************************************************************
Center geodetic : 0.00000000,0.00000000,0.0000000 {E-lon(deg),Lat(deg),Alt(km)}
Center cylindric: 0.00000000,0.00000000,0.0000000 {E-lon(deg),Dxy(km),Dz(km)}
Center radii    : (undefined)                                                  
Small perturbers: Yes                             {source: SB431-N16}
Output units    : AU-D
Output type     : GEOMETRIC cartesian states
Output format   : 2x (pos. & vel. w/uncertainties: XYZ)
Reference frame : Ecliptic of J2000.0
*******************************************************************************
Initial IAU76/J2000 heliocentric ecliptic osculating elements (au, days, deg.):
  EPOCH=  2457096.5 ! 2015-Mar-15.00 (TDB)         Residual RMS= .15215        
   EC= .169740588921197    QR= 36.26812668038214   TP= 2439073.1918764696      
   OM= 301.8697653771097   W=  303.6792418278852   IN= 24.27547942825912       
  Equivalent ICRF heliocentric equatorial cartesian coordinates (au, au/d):
   X= 3.282918509006196E+01  Y=-2.473623626514808E+01  Z=-3.244844214211168E+00
  VX= 1.694485643861744E-03 VY= 1.282980937734440E-03 VZ= 1.749779843556793E-03
Asteroid physical parameters (km, seconds, rotational period in hours):        
   GM= n.a.                RAD= n.a.               ROTPER= 18.02               
   H= 6.8                  G= .150                 B-V= n.a.                   
                           ALBEDO= n.a.            STYP= n.a.                  
*******************************************************************************
            JDTDB,            Calendar Date (TDB),                      X,                      Y,                      Z,                     VX,                     VY,                     VZ,             X_s,             Y_s,             Z_s,            VX_s,            VY_s,            VZ_s,
********************************************************************************************************************************************************************************************************************************************************************************************************
$$SOE
2451544.500000000, A.D. 2000-Jan-01 00:00:00.0000,  2.138391311777151E+01, -3.253212057402644E+01,  4.568665722258198E-01,  2.397350769752150E-03,  1.141805391803288E-03,  1.187729454834759E-03,  1.91968330E-04,  2.88519402E-04,  1.78374508E-05,  1.39608702E-08,  2.69827714E-08,  8.89684366E-09,
$$EOE
********************************************************************************************************************************************************************************************************************************************************************************************************
Coordinate system description:

  Ecliptic at the standard reference epoch

    Reference epoch: J2000.0
    X-Y plane: adopted Earth orbital plane at the reference epoch
               Note: obliquity of 84381.448 arcseconds (IAU76) wrt ICRF equator
    X-axis   : ICRF
    Z-axis   : perpendicular to the X-Y plane in the directional (+ or -) sense
               of Earth's north pole at the reference epoch.

  Symbol meaning [1 au= 149597870.700 km, 1 day= 86400.0 s]:

    JDTDB    Julian Day Number, Barycentric Dynamical Time
      X      X-component of position vector (au)
      Y      Y-component of position vector (au)
      Z      Z-component of position vector (au)
      VX     X-component of velocity vector (au/day)                           
      VY     Y-component of velocity vector (au/day)                           
      VZ     Z-component of velocity vector (au/day)                           
      X_s    X-direction 1-sigma position uncertainty (au)                     
      Y_s    Y-direction 1-sigma position uncertainty (au)                     
      Z_s    Z-direction 1-sigma position uncertainty (au)                     
      VX_s   X-direction 1-sigma velocity uncertainty (au/day)                 
      VY_s   Y-direction 1-sigma velocity uncertainty (au/day)                 
      VZ_s   Z-direction 1-sigma velocity uncertainty (au/day)                 

Geometric states/elements have no aberrations applied.


 Computations by ...
     Solar System Dynamics Group, Horizons On-Line Ephemeris System
     4800 Oak Grove Drive, Jet Propulsion Laboratory
     Pasadena, CA  91109   USA
     Information  : https://ssd.jpl.nasa.gov/
     Documentation: https://ssd.jpl.nasa.gov/?horizons_doc
     Connect      : https://ssd.jpl.nasa.gov/?horizons (browser)
                    telnet ssd.jpl.nasa.gov 6775       (command-line)
                    e-mail command interface available
                    Script and CGI interfaces available
     Author       : Jon.D.Giorgini@jpl.nasa.gov
*******************************************************************************
